[{"OBJECT_NAME":"STARLINK-32151","OBJECT_ID":"2024-132X","EPOCH":"2026-03-09T06:38:11.503392","MEAN_MOTION":15.30180538,"ECCENTRICITY":0.00011958,"INCLINATION":53.1616,"RA_OF_ASC_NODE":25.9023,"ARG_OF_PERICENTER":75.1928,"MEAN_ANOMALY":284.9205,"EPHEMERIS_TYPE":0,"CLASSIFICATION_TYPE":"U","NORAD_CAT_ID":60299,"ELEMENT_SET_NO":999,"REV_AT_EPOCH":9189,"BSTAR":3.2345062e-5,"MEAN_MOTION_DOT":5.98e-6,"MEAN_MOTION_DDOT":0},{"OBJECT_NAME":"CZ-2C DEB","OBJECT_ID":"2018-056F","EPOCH":"2026-03-09T10:57:26.102304","MEAN_MOTION":15.27739248,"ECCENTRICITY":0.00119172,"INCLINATION":98.1188,"RA_OF_ASC_NODE":250.032,"ARG_OF_PERICENTER":4.6998,"MEAN_ANOMALY":355.4349,"EPHEMERIS_TYPE":0,"CLASSIFICATION_TYPE":"U","NORAD_CAT_ID":43534,"ELEMENT_SET_NO":999,"REV_AT_EPOCH":41855,"BSTAR":0.00085537155,"MEAN_MOTION_DOT":0.00023193,"MEAN_MOTION_DDOT":0}]
